STARLINK-3323           
1 50804U 22001B   26068.75517144  .00009137  00000+0  59139-3 0  9997
2 50804  53.2149 158.8293 0001315 101.3232 258.7908 15.08842876230554
KUIPER-00148            
1 65769U 25217H   26068.27522507  .00015783  00000+0  98730-3 0  9995
2 65769  51.8794  26.5769 0008108 351.8096   8.2745 15.09536529 25078
